[
  {
    "OBJECT_NAME": "STARLINK-35195",
    "OBJECT_ID": "25207Q",
    "EPOCH": "2025-11-11T03:40:04.914624",
    "MEAN_MOTION": 15.39373806,
    "ECCENTRICITY": 0.0004546,
    "INCLINATION": 97.6044,
    "RA_OF_ASC_NODE": 19.7807,
    "ARG_OF_PERICENTER": 124.0388,
    "MEAN_ANOMALY": 236.129,
    "EPHEMERIS_TYPE": 0,
    "CLASSIFICATION_TYPE": "U",
    "NORAD_CAT_ID": 65606,
    "ELEMENT_SET_NO": 999,
    "REV_AT_EPOCH": 1029,
    "BSTAR": 0.0007175500000000001,
    "MEAN_MOTION_DOT": 0.00028038,
    "MEAN_MOTION_DDOT": 0.0,
    "TLE_LINE1": "1 65606U 25207Q   25315.15283466  .00028038  00000+0  71755-3 0  9998",
    "TLE_LINE2": "2 65606  97.6044  19.7807 0004546 124.0388 236.1290 15.39373806 10292",
    "COMMENT": "Grouped by shell and plane from TLE"
  },
  {
    "OBJECT_NAME": "STARLINK-35156",
    "OBJECT_ID": "25207R",
    "EPOCH": "2025-11-11T03:48:55.821024",
    "MEAN_MOTION": 15.39378044,
    "ECCENTRICITY": 0.0001763,
    "INCLINATION": 97.6021,
    "RA_OF_ASC_NODE": 19.769,
    "ARG_OF_PERICENTER": 106.3659,
    "MEAN_ANOMALY": 253.778,
    "EPHEMERIS_TYPE": 0,
    "CLASSIFICATION_TYPE": "U",
    "NORAD_CAT_ID": 65607,
    "ELEMENT_SET_NO": 999,
    "REV_AT_EPOCH": 1029,
    "BSTAR": 0.0011378,
    "MEAN_MOTION_DOT": 0.000446,
    "MEAN_MOTION_DDOT": 0.0,
    "TLE_LINE1": "1 65607U 25207R   25315.15897941  .00044600  00000+0  11378-2 0  9995",
    "TLE_LINE2": "2 65607  97.6021  19.7690 0001763 106.3659 253.7780 15.39378044 10298",
    "COMMENT": "Grouped by shell and plane from TLE"
  },
  {
    "OBJECT_NAME": "STARLINK-35185",
    "OBJECT_ID": "25207S",
    "EPOCH": "2025-11-11T04:22:12.309888",
    "MEAN_MOTION": 15.39392015,
    "ECCENTRICITY": 0.0002525,
    "INCLINATION": 97.6036,
    "RA_OF_ASC_NODE": 19.7393,
    "ARG_OF_PERICENTER": 107.822,
    "MEAN_ANOMALY": 252.3301,
    "EPHEMERIS_TYPE": 0,
    "CLASSIFICATION_TYPE": "U",
    "NORAD_CAT_ID": 65608,
    "ELEMENT_SET_NO": 999,
    "REV_AT_EPOCH": 1029,
    "BSTAR": 0.001043,
    "MEAN_MOTION_DOT": 0.00040879,
    "MEAN_MOTION_DDOT": 0.0,
    "TLE_LINE1": "1 65608U 25207S   25315.18208692  .00040879  00000+0  10430-2 0  9990",
    "TLE_LINE2": "2 65608  97.6036  19.7393 0002525 107.8220 252.3301 15.39392015 10290",
    "COMMENT": "Grouped by shell and plane from TLE"
  },
  {
    "OBJECT_NAME": "STARLINK-35053",
    "OBJECT_ID": "25207T",
    "EPOCH": "2025-11-11T03:59:19.854528",
    "MEAN_MOTION": 15.39386891,
    "ECCENTRICITY": 0.0001694,
    "INCLINATION": 97.6027,
    "RA_OF_ASC_NODE": 19.7605,
    "ARG_OF_PERICENTER": 97.0659,
    "MEAN_ANOMALY": 263.0779,
    "EPHEMERIS_TYPE": 0,
    "CLASSIFICATION_TYPE": "U",
    "NORAD_CAT_ID": 65609,
    "ELEMENT_SET_NO": 999,
    "REV_AT_EPOCH": 1013,
    "BSTAR": 0.001286,
    "MEAN_MOTION_DOT": 0.00050474,
    "MEAN_MOTION_DDOT": 0.0,
    "TLE_LINE1": "1 65609U 25207T   25315.16620202  .00050474  00000+0  12860-2 0  9995",
    "TLE_LINE2": "2 65609  97.6027  19.7605 0001694  97.0659 263.0779 15.39386891 10135",
    "COMMENT": "Grouped by shell and plane from TLE"
  },
  {
    "OBJECT_NAME": "STARLINK-35178",
    "OBJECT_ID": "25207U",
    "EPOCH": "2025-11-11T04:39:53.390880",
    "MEAN_MOTION": 15.39349832,
    "ECCENTRICITY": 0.0001211,
    "INCLINATION": 97.6047,
    "RA_OF_ASC_NODE": 19.7226,
    "ARG_OF_PERICENTER": 76.4765,
    "MEAN_ANOMALY": 283.6615,
    "EPHEMERIS_TYPE": 0,
    "CLASSIFICATION_TYPE": "U",
    "NORAD_CAT_ID": 65610,
    "ELEMENT_SET_NO": 999,
    "REV_AT_EPOCH": 1029,
    "BSTAR": 0.0013644999999999998,
    "MEAN_MOTION_DOT": 0.00053516,
    "MEAN_MOTION_DDOT": 0.0,
    "TLE_LINE1": "1 65610U 25207U   25315.19436795  .00053516  00000+0  13645-2 0  9994",
    "TLE_LINE2": "2 65610  97.6047  19.7226 0001211  76.4765 283.6615 15.39349832 10290",
    "COMMENT": "Grouped by shell and plane from TLE"
  },
  {
    "OBJECT_NAME": "STARLINK-35186",
    "OBJECT_ID": "25207V",
    "EPOCH": "2025-11-11T03:31:15.032064",
    "MEAN_MOTION": 15.39377611,
    "ECCENTRICITY": 0.0001111,
    "INCLINATION": 97.6023,
    "RA_OF_ASC_NODE": 19.7876,
    "ARG_OF_PERICENTER": 102.7779,
    "MEAN_ANOMALY": 257.359,
    "EPHEMERIS_TYPE": 0,
    "CLASSIFICATION_TYPE": "U",
    "NORAD_CAT_ID": 65611,
    "ELEMENT_SET_NO": 999,
    "REV_AT_EPOCH": 1029,
    "BSTAR": 0.0013358999999999999,
    "MEAN_MOTION_DOT": 0.00052432,
    "MEAN_MOTION_DDOT": 0.0,
    "TLE_LINE1": "1 65611U 25207V   25315.14670176  .00052432  00000+0  13359-2 0  9991",
    "TLE_LINE2": "2 65611  97.6023  19.7876 0001111 102.7779 257.3590 15.39377611 10299",
    "COMMENT": "Grouped by shell and plane from TLE"
  },
  {
    "OBJECT_NAME": "STARLINK-35154",
    "OBJECT_ID": "25207W",
    "EPOCH": "2025-11-11T03:52:04.059840",
    "MEAN_MOTION": 15.39329348,
    "ECCENTRICITY": 0.0002387,
    "INCLINATION": 97.6039,
    "RA_OF_ASC_NODE": 19.7686,
    "ARG_OF_PERICENTER": 111.96,
    "MEAN_ANOMALY": 248.1899,
    "EPHEMERIS_TYPE": 0,
    "CLASSIFICATION_TYPE": "U",
    "NORAD_CAT_ID": 65612,
    "ELEMENT_SET_NO": 999,
    "REV_AT_EPOCH": 1013,
    "BSTAR": 0.0013536000000000002,
    "MEAN_MOTION_DOT": 0.00053052,
    "MEAN_MOTION_DDOT": 0.0,
    "TLE_LINE1": "1 65612U 25207W   25315.16115810  .00053052  00000+0  13536-2 0  9999",
    "TLE_LINE2": "2 65612  97.6039  19.7686 0002387 111.9600 248.1899 15.39329348 10134",
    "COMMENT": "Grouped by shell and plane from TLE"
  },
  {
    "OBJECT_NAME": "STARLINK-35162",
    "OBJECT_ID": "25207X",
    "EPOCH": "2025-11-11T04:11:48.552864",
    "MEAN_MOTION": 15.39379681,
    "ECCENTRICITY": 0.0001461,
    "INCLINATION": 97.6037,
    "RA_OF_ASC_NODE": 19.7495,
    "ARG_OF_PERICENTER": 72.7567,
    "MEAN_ANOMALY": 287.3838,
    "EPHEMERIS_TYPE": 0,
    "CLASSIFICATION_TYPE": "U",
    "NORAD_CAT_ID": 65613,
    "ELEMENT_SET_NO": 999,
    "REV_AT_EPOCH": 1029,
    "BSTAR": 0.0011076999999999999,
    "MEAN_MOTION_DOT": 0.00043414,
    "MEAN_MOTION_DDOT": 0.0,
    "TLE_LINE1": "1 65613U 25207X   25315.17486751  .00043414  00000+0  11077-2 0  9995",
    "TLE_LINE2": "2 65613  97.6037  19.7495 0001461  72.7567 287.3838 15.39379681 10299",
    "COMMENT": "Grouped by shell and plane from TLE"
  },
  {
    "OBJECT_NAME": "STARLINK-35206",
    "OBJECT_ID": "25207Y",
    "EPOCH": "2025-11-11T03:13:02.923968",
    "MEAN_MOTION": 15.39322898,
    "ECCENTRICITY": 8.82e-05,
    "INCLINATION": 97.6055,
    "RA_OF_ASC_NODE": 19.6483,
    "ARG_OF_PERICENTER": 98.736,
    "MEAN_ANOMALY": 261.3985,
    "EPHEMERIS_TYPE": 0,
    "CLASSIFICATION_TYPE": "U",
    "NORAD_CAT_ID": 65614,
    "ELEMENT_SET_NO": 999,
    "REV_AT_EPOCH": 1017,
    "BSTAR": 0.0011935,
    "MEAN_MOTION_DOT": 0.00046713,
    "MEAN_MOTION_DDOT": 0.0,
    "TLE_LINE1": "1 65614U 25207Y   25315.13406162  .00046713  00000+0  11935-2 0  9998",
    "TLE_LINE2": "2 65614  97.6055  19.6483 0000882  98.7360 261.3985 15.39322898 10171",
    "COMMENT": "Grouped by shell and plane from TLE"
  },
  {
    "OBJECT_NAME": "STARLINK-35174",
    "OBJECT_ID": "25207Z",
    "EPOCH": "2025-11-11T03:24:29.431584",
    "MEAN_MOTION": 15.39413013,
    "ECCENTRICITY": 0.0001821,
    "INCLINATION": 97.6032,
    "RA_OF_ASC_NODE": 19.6364,
    "ARG_OF_PERICENTER": 83.0706,
    "MEAN_ANOMALY": 277.0747,
    "EPHEMERIS_TYPE": 0,
    "CLASSIFICATION_TYPE": "U",
    "NORAD_CAT_ID": 65615,
    "ELEMENT_SET_NO": 999,
    "REV_AT_EPOCH": 1028,
    "BSTAR": 0.001275,
    "MEAN_MOTION_DOT": 0.00050081,
    "MEAN_MOTION_DDOT": 0.0,
    "TLE_LINE1": "1 65615U 25207Z   25315.14200731  .00050081  00000+0  12750-2 0  9993",
    "TLE_LINE2": "2 65615  97.6032  19.6364 0001821  83.0706 277.0747 15.39413013 10282",
    "COMMENT": "Grouped by shell and plane from TLE"
  }
]